NORAD_CAT_ID,OBJECT_NAME,OBJECT_TYPE,EPOCH,MEAN_MOTION,ECCENTRICITY,INCLINATION,RA_OF_ASC_NODE,ARG_OF_PERICENTER,MEAN_ANOMALY,BSTAR,MEAN_MOTION_DOT,MEAN_MOTION_DDOT,TLE_LINE0,TLE_LINE1,TLE_LINE2,SEMIMAJOR_AXIS,PERIOD,APOGEE,PERIGEE,DECAYED
52503.0,STARLINK-3861,PAYLOAD,2022-06-04 08:47:17,15.73237174,0.000229,53.2161,122.9372,43.3052,316.8147,6.7159e-05,8.829e-05,0.0,0 STARLINK-3861,1 52503U 22049BE  22155.36617096  .00008829  00000-0  67159-4 0  9994,2 52503  53.2161 122.9372 0002290  43.3052 316.8147 15.73237174  4735,6727.7890000000025,91.531,351.195,348.11400000000015,0.0
52503.0,STARLINK-3861,PAYLOAD,2022-06-05 22:00:00,15.73205473,0.0001819,53.2176,115.2666,37.9483,108.3916,-7.2961e-06,-1.645e-05,0.0,0 STARLINK-3861,1 52503U 22049BE  22156.91667824 -.00001645  00000-0 -72961-5 0  9999,2 52503  53.2176 115.2666 0001819  37.9483 108.3916 15.73205473  4976,6727.88,91.533,350.968,348.521,0.0
52503.0,STARLINK-3861,PAYLOAD,2022-06-06 06:00:00,15.73163055,0.0002003,53.2165,113.617,26.603,208.9076,0.00039559,0.00055178,0.0,0 STARLINK-3861,1 52503U 22049BE  22157.25001157  .00055178  00000-0  39559-3 0  9990,2 52503  53.2165 113.6170 0002003  26.6030 208.9076 15.73163055  5025,6728.001,91.535,351.213,348.51800000000014,0.0
52503.0,STARLINK-3861,PAYLOAD,2022-06-06 14:00:01,15.73218573,0.0001824,53.216,111.9659,28.2767,296.14,-3.9205e-05,-6.124e-05,0.0,0 STARLINK-3861,1 52503U 22049BE  22157.58334491 -.00006124  00000-0 -39205-4 0  9994,2 52503  53.2160 111.9659 0001824  28.2767 296.1400 15.73218573  1301,6727.842,91.532,350.934,348.48,0.0
52503.0,STARLINK-3861,PAYLOAD,2022-06-06 22:00:00,15.73226934,0.0001783,53.2161,110.316,35.4963,17.874000000000006,-0.00026195,-0.00037265,0.0,0 STARLINK-3861,1 52503U 22049BE  22157.91667824 -.00037265  00000-0 -26195-3 0  9993,2 52503  53.2161 110.3160 0001783  35.4963  17.8740 15.73226934  5134,6727.818,91.532,350.8830000000001,348.4840000000001,0.0
52503.0,STARLINK-3861,PAYLOAD,2022-06-07 14:00:01,15.73204899,0.0001799,53.2161,107.0172,31.2603,200.0151,-4.5364e-05,-6.984e-05,0.0,0 STARLINK-3861,1 52503U 22049BE  22158.58334491 -.00006984  00000-0 -45364-4 0  9992,2 52503  53.2161 107.0172 0001799  31.2603 200.0151 15.73204899  5231,6727.880999999999,91.533,350.957,348.536,0.0
52503.0,STARLINK-3861,PAYLOAD,2022-06-07 22:00:00,15.73250586,0.000176,53.2164,105.3673,36.1889,284.0082,-0.00047943,-0.00067517,0.0,0 STARLINK-3861,1 52503U 22049BE  22158.91667824 -.00067517  00000-0 -47943-3 0  9991,2 52503  53.2164 105.3673 0001760  36.1889 284.0082 15.73250586  1302,6727.751,91.53,350.8,348.432,0.0
52503.0,STARLINK-3861,PAYLOAD,2022-06-08 06:00:02,15.73172194,0.000204,53.2164,103.7196,34.8241,14.4227,0.00059089,0.00083035,0.0,0 STARLINK-3861,1 52503U 22049BE  22159.25002315  .00083035  00000-0  59089-3 0  9992,2 52503  53.2164 103.7196 0002040  34.8241  14.4227 15.73172194  5345,6727.974,91.535,351.212,348.467,0.0
52503.0,STARLINK-3861,PAYLOAD,2022-06-08 14:00:01,15.73231578,0.0001781999999999,53.2161,102.0682,34.4308,103.6858,-0.00054361,-0.00076331,0.0,0 STARLINK-3861,1 52503U 22049BE  22159.58334491 -.00076331  00000-0 -54361-3 0  9992,2 52503  53.2161 102.0682 0001782  34.4308 103.6858 15.73231578  5394,6727.805,91.531,350.869,348.471,0.0
52503.0,STARLINK-3861,PAYLOAD,2022-06-08 22:00:01,15.73158983,0.0001789,53.2162,100.4188,39.2218,187.8628,-0.00017778,-0.00025453,0.0,0 STARLINK-3861,1 52503U 22049BE  22159.91668981 -.00025453  00000-0 -17778-3 0  9993,2 52503  53.2162 100.4188 0001789  39.2218 187.8628 15.73158983  1302,6728.012,91.536,351.081,348.673,0.0
52503.0,STARLINK-3861,PAYLOAD,2022-06-09 14:00:01,15.73161525,0.00018,53.2162,97.1198,39.8119,4.9404,0.00031053,0.00043114,0.0,0 STARLINK-3861,1 52503U 22049BE  22160.58334491  .00043114  00000-0  31053-3 0  9998,2 52503  53.2162  97.1198 0001800  39.8119   4.9404 15.73161525  1302,6728.005,91.535,351.081,348.659,0.0
52503.0,STARLINK-3861,PAYLOAD,2022-06-09 22:00:00,15.73206773,0.0001871,53.2165,95.4704,42.9393,90.7008,0.00011381,0.00015386,0.0,0 STARLINK-3861,1 52503U 22049BE  22160.91667824  .00015386  00000-0  11381-3 0  9996,2 52503  53.2165  95.4704 0001871  42.9393  90.7008 15.73206773  1304,6727.876,91.533,351.0,348.482,0.0
52503.0,STARLINK-3861,PAYLOAD,2022-06-10 00:00:00,15.73212923,0.0001936,53.2165,95.0587,41.0149,204.8587,4.9573e-05,6.346e-05,0.0,0 STARLINK-3861,1 52503U 22049BE  22161.00001157  .00006346  00000-0  49573-4 0  9999,2 52503  53.2165  95.0587 0001936  41.0149 204.8587 15.73212923  5612,6727.858,91.532,351.026,348.421,0.0
52503.0,STARLINK-3861,PAYLOAD,2022-06-10 14:00:01,15.73224028,0.0001716,53.2165,92.1706,37.6999,273.883,-0.00010759,-0.00015708,0.0,0 STARLINK-3861,1 52503U 22049BE  22161.58334491 -.00015708  00000-0 -10759-3 0  9999,2 52503  53.2165  92.1706 0001716  37.6999 273.8830 15.73224028  1301,6727.8269999999975,91.532,350.846,348.537,0.0
52503.0,STARLINK-3861,PAYLOAD,2022-06-10 22:00:00,15.73273215,0.0001639,53.2166,90.5216,34.1761,6.3537,-0.00049646,-0.00069939,0.0,0 STARLINK-3861,1 52503U 22049BE  22161.91667824 -.00069939  00000-0 -49646-3 0  9997,2 52503  53.2166  90.5216 0001639  34.1761   6.3537 15.73273215  5762,6727.686,91.529,350.654,348.449,0.0
52503.0,STARLINK-3861,PAYLOAD,2022-06-11 22:00:00,15.73207298,0.0001665,53.2171,85.573,38.1248,269.2331,8.4199e-05,0.00011216,0.0,0 STARLINK-3861,1 52503U 22049BE  22162.91667824  .00011216  00000-0  84199-4 0  9994,2 52503  53.2171  85.5730 0001665  38.1248 269.2331 15.73207298  5913,6727.874,91.533,350.86,348.619,0.0
52503.0,STARLINK-3861,PAYLOAD,2022-06-12 14:00:01,15.73209831,0.0001679,53.2175,82.2745,34.7423,90.2805,-5.071899999999999e-05,-7.735e-05,0.0,0 STARLINK-3861,1 52503U 22049BE  22163.58334491 -.00007735  00000-0 -50719-4 0  9993,2 52503  53.2175  82.2745 0001679  34.7423  90.2805 15.73209831  6025,6727.8669999999975,91.533,350.862,348.603,0.0
52503.0,STARLINK-3861,PAYLOAD,2022-06-12 22:00:00,15.73441154,0.0001595999999999,53.2176,80.6248,29.9791,184.1168,-0.0048384,-0.00637192,0.0,0 STARLINK-3861,1 52503U 22049BE  22163.91667824 -.00637192  00000-0 -48384-2 0  9998,2 52503  53.2176  80.6248 0001596  29.9791 184.1168 15.73441154  6074,6727.208000000001,91.519,350.146,347.999,0.0
52503.0,STARLINK-3861,PAYLOAD,2022-06-13 06:00:02,15.7318848,0.0001789,53.2169,78.977,31.3084,271.8878,0.00059158,0.00083191,0.0,0 STARLINK-3861,1 52503U 22049BE  22164.25002315  .00083191  00000-0  59158-3 0  9998,2 52503  53.2169  78.9770 0001789  31.3084 271.8878 15.73188480  6120,6727.928000000001,91.534,350.997,348.589,0.0
52503.0,STARLINK-3861,PAYLOAD,2022-06-13 14:00:01,15.73249797,0.0001457,53.2172,77.3254,34.5051,357.5812,-7.1318e-05,-0.00010638,0.0,0 STARLINK-3861,1 52503U 22049BE  22164.58334491 -.00010638  00000-0 -71318-4 0  9998,2 52503  53.2172  77.3254 0001457  34.5051 357.5812 15.73249797  1309,6727.753000000002,91.53,350.598,348.63800000000015,0.0
52503.0,STARLINK-3861,PAYLOAD,2022-06-13 22:00:00,15.73256066,0.0001493,53.2176,75.6768,29.7869,91.2704,-0.00077879,-0.00108779,0.0,0 STARLINK-3861,1 52503U 22049BE  22164.91667824 -.00108779  00000-0 -77879-3 0  9995,2 52503  53.2176  75.6768 0001493  29.7869  91.2704 15.73256066  1306,6727.735,91.53,350.605,348.596,0.0
52503.0,STARLINK-3861,PAYLOAD,2022-06-14 06:00:00,15.73161693,0.0001661,53.2173,74.0285,24.5862,185.453,0.0002478,0.00034242,0.0,0 STARLINK-3861,1 52503U 22049BE  22165.25001157  .00034242  00000-0  24780-3 0  9998,2 52503  53.2173  74.0285 0001661  24.5862 185.4530 15.73161693  6289,6728.004,91.535,350.987,348.75199999999984,0.0
52503.0,STARLINK-3861,PAYLOAD,2022-06-14 14:00:01,15.73170421,0.0001506,53.2174,72.3772,34.3632,264.5611,-8.5537e-05,-0.00012591,0.0,0 STARLINK-3861,1 52503U 22049BE  22165.58334491 -.00012591  00000-0 -85537-4 0  9997,2 52503  53.2174  72.3772 0001506  34.3632 264.5611 15.73170421  6338,6727.98,91.535,350.858,348.831,0.0
52503.0,STARLINK-3861,PAYLOAD,2022-06-14 22:00:00,15.73163053,0.0001679,53.2174,70.7291,38.8302,348.9915,0.00011788,0.00015929,0.0,0 STARLINK-3861,1 52503U 22049BE  22165.91667824  .00015929  00000-0  11788-3 0  9995,2 52503  53.2174  70.7291 0001679  38.8302 348.9915 15.73163053  1309,6728.001,91.535,350.995,348.736,0.0
52503.0,STARLINK-3861,PAYLOAD,2022-06-15 06:00:00,15.73202249,0.000186,53.2168,69.0807,37.7124,78.9887,-0.00025505,-0.00036267,0.0,0 STARLINK-3861,1 52503U 22049BE  22166.25001157 -.00036267  00000-0 -25505-3 0  9996,2 52503  53.2168  69.0807 0001860  37.7124  78.9887 15.73202249  6447,6727.889,91.533,351.005,348.50199999999984,0.0
52503.0,STARLINK-3861,PAYLOAD,2022-06-15 14:00:01,15.73123911,0.0001701,53.217,67.4291,47.1765,158.4579,0.00069691,0.00098015,0.0,0 STARLINK-3861,1 52503U 22049BE  22166.58334491  .00098015  00000-0  69691-3 0  9993,2 52503  53.2170  67.4291 0001701  47.1765 158.4579 15.73123911  1309,6728.111999999999,91.538,351.122,348.833,0.0
52503.0,STARLINK-3861,PAYLOAD,2022-06-15 22:00:00,15.73200756,0.0001815,53.2172,65.7811,46.0122,248.4976,0.00015487,0.0002117,0.0,0 STARLINK-3861,1 52503U 22049BE  22166.91667824  .00021170  00000-0  15487-3 0  9991,2 52503  53.2172  65.7811 0001815  46.0122 248.4976 15.73200756  6546,6727.893,91.533,350.97900000000016,348.537,0.0
52503.0,STARLINK-3861,PAYLOAD,2022-06-16 02:00:01,15.73222376,0.0001858,53.2173,64.9572,41.9509,117.0445,0.00028034,0.00038945,0.0,0 STARLINK-3861,1 52503U 22049BE  22167.08334491  .00038945  00000-0  28034-3 0  9991,2 52503  53.2173  64.9572 0001858  41.9509 117.0445 15.73222376  1305,6727.831,91.532,350.946,348.446,0.0
52503.0,STARLINK-3861,PAYLOAD,2022-06-19 14:00:01,15.73163699,0.0001575999999999,53.216,47.6346,51.4715,141.3514,0.0007257,0.00102317,0.0,0 STARLINK-3861,1 52503U 22049BE  22170.58334491  .00102317  00000-0  72570-3 0  9999,2 52503  53.2160  47.6346 0001576  51.4715 141.3514 15.73163699  1309,6727.999,91.535,350.9240000000001,348.80300000000005,0.0
